ONEWEB-0597             
1 54663U 22166X   24226.95100303 -.00000027  00000+0 -97409-4 0  9991
2 54663  87.9316  17.8029 0001987  86.1813 273.9548 13.21824359 82735
ONEWEB-0600             
1 54664U 22166Y   24226.93365711  .00000094  00000+0  19690-3 0  9993
2 54664  87.9310  17.8434 0001844  89.0916 271.0429 13.21824724 82708
ONEWEB-0601             
1 54665U 22166Z   24226.92575803  .00000118  00000+0  25326-3 0  9998
2 54665  87.9318  17.8134 0002268  88.0410 272.0983 13.21828127 82890
ONEWEB-0602             
1 54666U 22166AA  24226.89107016  .00000081  00000+0  16352-3 0  9990
2 54666  87.9316  17.8238 0002039  86.7760 273.3607 13.21828101 82735
ONEWEB-0603             
1 54667U 22166AB  24226.66871348  .00000144  00000+0  31665-3 0  9996
2 54667  87.9318  17.8706 0002099  86.2943 273.8431 13.21827434 82639
ONEWEB-0604             
1 54668U 22166AC  24226.95888819 -.00000001  00000+0 -33386-4 0  9997
2 54668  87.9310  17.7884 0001627  87.1730 272.9591 13.21824721 82631
ONEWEB-0605             
1 54669U 22166AD  24226.95257912 -.00000021  00000+0 -81320-4 0  9995
2 54669  87.9309  17.8220 0002433  89.8164 270.3248 13.21827416 82704
ONEWEB-0606             
1 54670U 22166AE  24226.89895069  .00000090  00000+0  18543-3 0  9991
2 54670  87.9316  17.8262 0001715  99.5585 260.5743 13.21827940 82755
